[{"zh":"臺北市","en":"Taipei City","districts":[{"zip":"100","zh":"中正區","en":"Zhongzheng Dist."},{"zip":"103","zh":"大同區","en":"Datong Dist."},{"zip":"104","zh":"中山區","en":"Zhongshan Dist."},{"zip":"105","zh":"松山區","en":"Songshan Dist."},{"zip":"106","zh":"大安區","en":"Da’an Dist."},{"zip":"108","zh":"萬華區","en":"Wanhua Dist."},{"zip":"110","zh":"信義區","en":"Xinyi Dist."},{"zip":"111","zh":"士林區","en":"Shilin Dist."},{"zip":"112","zh":"北投區","en":"Beitou Dist."},{"zip":"114","zh":"內湖區","en":"Neihu Dist."},{"zip":"115","zh":"南港區","en":"Nangang Dist."},{"zip":"116","zh":"文山區","en":"Wenshan Dist."}]},{"zh":"基隆市","en":"Keelung City","districts":[{"zip":"200","zh":"仁愛區","en":"Ren’ai Dist."},{"zip":"201","zh":"信義區","en":"Xinyi Dist."},{"zip":"202","zh":"中正區","en":"Zhongzheng Dist."},{"zip":"203","zh":"中山區","en":"Zhongshan Dist."},{"zip":"204","zh":"安樂區","en":"Anle Dist."},{"zip":"205","zh":"暖暖區","en":"Nuannuan Dist."},{"zip":"206","zh":"七堵區","en":"Qidu Dist."}]},{"zh":"新北市","en":"New Taipei City","districts":[{"zip":"207","zh":"萬里區","en":"Wanli Dist."},{"zip":"208","zh":"金山區","en":"Jinshan Dist."},{"zip":"220","zh":"板橋區","en":"Banqiao Dist."},{"zip":"221","zh":"汐止區","en":"Xizhi Dist."},{"zip":"222","zh":"深坑區","en":"Shenkeng Dist."},{"zip":"223","zh":"石碇區","en":"Shiding Dist."},{"zip":"224","zh":"瑞芳區","en":"Ruifang Dist."},{"zip":"226","zh":"平溪區","en":"Pingxi Dist."},{"zip":"227","zh":"雙溪區","en":"Shuangxi Dist."},{"zip":"228","zh":"貢寮區","en":"Gongliao Dist."},{"zip":"231","zh":"新店區","en":"Xindian Dist."},{"zip":"232","zh":"坪林區","en":"Pinglin Dist."},{"zip":"233","zh":"烏來區","en":"Wulai Dist."},{"zip":"234","zh":"永和區","en":"Yonghe Dist."},{"zip":"235","zh":"中和區","en":"Zhonghe Dist."},{"zip":"236","zh":"土城區","en":"Tucheng Dist."},{"zip":"237","zh":"三峽區","en":"Sanxia Dist."},{"zip":"238","zh":"樹林區","en":"Shulin Dist."},{"zip":"239","zh":"鶯歌區","en":"Yingge Dist."},{"zip":"241","zh":"三重區","en":"Sanchong Dist."},{"zip":"242","zh":"新莊區","en":"Xinzhuang Dist."},{"zip":"243","zh":"泰山區","en":"Taishan Dist."},{"zip":"244","zh":"林口區","en":"Linkou Dist."},{"zip":"247","zh":"蘆洲區","en":"Luzhou Dist."},{"zip":"248","zh":"五股區","en":"Wugu Dist."},{"zip":"249","zh":"八里區","en":"Bali Dist."},{"zip":"251","zh":"淡水區","en":"Tamsui Dist."},{"zip":"252","zh":"三芝區","en":"Sanzhi Dist."},{"zip":"253","zh":"石門區","en":"Shimen Dist."}]},{"zh":"連江縣","en":"Lienchiang County","districts":[{"zip":"209","zh":"南竿鄉","en":"Nangan Township"},{"zip":"210","zh":"北竿鄉","en":"Beigan Township"},{"zip":"211","zh":"莒光鄉","en":"Juguang Township"},{"zip":"212","zh":"東引鄉","en":"Dongyin Township"}]},{"zh":"宜蘭縣","en":"Yilan County","districts":[{"zip":"260","zh":"宜蘭市","en":"Yilan City"},{"zip":"263","zh":"壯圍鄉","en":"Zhuangwei Township"},{"zip":"261","zh":"頭城鎮","en":"Toucheng Township"},{"zip":"262","zh":"礁溪鄉","en":"Jiaoxi Township"},{"zip":"264","zh":"員山鄉","en":"Yuanshan Township"},{"zip":"265","zh":"羅東鎮","en":"Luodong Township"},{"zip":"266","zh":"三星鄉","en":"Sanxing Township"},{"zip":"267","zh":"大同鄉","en":"Datong Township"},{"zip":"268","zh":"五結鄉","en":"Wujie Township"},{"zip":"269","zh":"冬山鄉","en":"Dongshan Township"},{"zip":"270","zh":"蘇澳鎮","en":"Su’ao Township"},{"zip":"272","zh":"南澳鄉","en":"Nan’ao Township"},{"zip":"290","zh":"釣魚臺","en":"Diaoyutai"}]},{"zh":"釣魚臺","en":"Diauyutai","districts":[{"zip":"290","zh":"釣魚臺","en":"Diaoyutai"}]},{"zh":"新竹市","en":"Hsinchu City","districts":[{"zip":"300","zh":"東區","en":"East Dist."},{"zip":"300","zh":"北區","en":"North Dist."},{"zip":"300","zh":"香山區","en":"Xiangshan Dist."}]},{"zh":"新竹縣","en":"Hsinchu County","districts":[{"zip":"308","zh":"寶山鄉","en":"Baoshan Township"},{"zip":"302","zh":"竹北市","en":"Zhubei City"},{"zip":"303","zh":"湖口鄉","en":"Hukou Township"},{"zip":"304","zh":"新豐鄉","en":"Xinfeng Township"},{"zip":"305","zh":"新埔鎮","en":"Xinpu Township"},{"zip":"306","zh":"關西鎮","en":"Guanxi Township"},{"zip":"307","zh":"芎林鄉","en":"Qionglin Township"},{"zip":"310","zh":"竹東鎮","en":"Zhudong Township"},{"zip":"311","zh":"五峰鄉","en":"Wufeng Township"},{"zip":"312","zh":"橫山鄉","en":"Hengshan Township"},{"zip":"313","zh":"尖石鄉","en":"Jianshi Township"},{"zip":"314","zh":"北埔鄉","en":"Beipu Township"},{"zip":"315","zh":"峨眉鄉","en":"Emei Township"}]},{"zh":"桃園市","en":"Taoyuan City","districts":[{"zip":"320","zh":"中壢區","en":"Zhongli Dist."},{"zip":"324","zh":"平鎮區","en":"Pingzhen Dist."},{"zip":"325","zh":"龍潭區","en":"Longtan Dist."},{"zip":"326","zh":"楊梅區","en":"Yangmei Dist."},{"zip":"327","zh":"新屋區","en":"Xinwu Dist."},{"zip":"328","zh":"觀音區","en":"Guanyin Dist."},{"zip":"330","zh":"桃園區","en":"Taoyuan Dist."},{"zip":"333","zh":"龜山區","en":"Guishan Dist."},{"zip":"334","zh":"八德區","en":"Bade Dist."},{"zip":"335","zh":"大溪區","en":"Daxi Dist."},{"zip":"336","zh":"復興區","en":"Fuxing Dist."},{"zip":"337","zh":"大園區","en":"Dayuan Dist."},{"zip":"338","zh":"蘆竹區","en":"Luzhu Dist."}]},{"zh":"苗栗縣","en":"Miaoli County","districts":[{"zip":"350","zh":"竹南鎮","en":"Zhunan Township"},{"zip":"351","zh":"頭份市","en":"Toufen City"},{"zip":"352","zh":"三灣鄉","en":"Sanwan Township"},{"zip":"353","zh":"南庄鄉","en":"Nanzhuang Township"},{"zip":"354","zh":"獅潭鄉","en":"Shitan Township"},{"zip":"356","zh":"後龍鎮","en":"Houlong Township"},{"zip":"357","zh":"通霄鎮","en":"Tongxiao Township"},{"zip":"358","zh":"苑裡鎮","en":"Yuanli Township"},{"zip":"360","zh":"苗栗市","en":"Miaoli City"},{"zip":"361","zh":"造橋鄉","en":"Zaoqiao Township"},{"zip":"362","zh":"頭屋鄉","en":"Touwu Township"},{"zip":"363","zh":"公館鄉","en":"Gongguan Township"},{"zip":"364","zh":"大湖鄉","en":"Dahu Township"},{"zip":"365","zh":"泰安鄉","en":"Tai’an Township"},{"zip":"366","zh":"銅鑼鄉","en":"Tongluo Township"},{"zip":"367","zh":"三義鄉","en":"Sanyi Township"},{"zip":"368","zh":"西湖鄉","en":"Xihu Township"},{"zip":"369","zh":"卓蘭鎮","en":"Zhuolan Township"}]},{"zh":"臺中市","en":"Taichung City","districts":[{"zip":"400","zh":"中區","en":"Central Dist."},{"zip":"401","zh":"東區","en":"East Dist."},{"zip":"402","zh":"南區","en":"South Dist."},{"zip":"403","zh":"西區","en":"West Dist."},{"zip":"404","zh":"北區","en":"North Dist."},{"zip":"406","zh":"北屯區","en":"Beitun Dist."},{"zip":"407","zh":"西屯區","en":"Xitun Dist."},{"zip":"408","zh":"南屯區","en":"Nantun Dist."},{"zip":"411","zh":"太平區","en":"Taiping Dist."},{"zip":"412","zh":"大里區","en":"Dali Dist."},{"zip":"413","zh":"霧峰區","en":"Wufeng Dist."},{"zip":"414","zh":"烏日區","en":"Wuri Dist."},{"zip":"420","zh":"豐原區","en":"Fengyuan Dist."},{"zip":"421","zh":"后里區","en":"Houli Dist."},{"zip":"422","zh":"石岡區","en":"Shigang Dist."},{"zip":"423","zh":"東勢區","en":"Dongshi Dist."},{"zip":"424","zh":"和平區","en":"Heping Dist."},{"zip":"426","zh":"新社區","en":"Xinshe Dist."},{"zip":"427","zh":"潭子區","en":"Tanzi Dist."},{"zip":"428","zh":"大雅區","en":"Daya Dist."},{"zip":"429","zh":"神岡區","en":"Shengang Dist."},{"zip":"432","zh":"大肚區","en":"Dadu Dist."},{"zip":"433","zh":"沙鹿區","en":"Shalu Dist."},{"zip":"434","zh":"龍井區","en":"Longjing Dist."},{"zip":"435","zh":"梧棲區","en":"Wuqi Dist."},{"zip":"436","zh":"清水區","en":"Qingshui Dist."},{"zip":"437","zh":"大甲區","en":"Dajia Dist."},{"zip":"438","zh":"外埔區","en":"Waipu Dist."},{"zip":"439","zh":"大安區","en":"Da’an Dist."}]},{"zh":"彰化縣","en":"Changhua County","districts":[{"zip":"500","zh":"彰化市","en":"Changhua City"},{"zip":"502","zh":"芬園鄉","en":"Fenyuan Township"},{"zip":"503","zh":"花壇鄉","en":"Huatan Township"},{"zip":"504","zh":"秀水鄉","en":"Xiushui Township"},{"zip":"505","zh":"鹿港鎮","en":"Lukang Township"},{"zip":"506","zh":"福興鄉","en":"Fuxing Township"},{"zip":"507","zh":"線西鄉","en":"Xianxi Township"},{"zip":"508","zh":"和美鎮","en":"Hemei Township"},{"zip":"509","zh":"伸港鄉","en":"Shengang Township"},{"zip":"510","zh":"員林市","en":"Yuanlin City"},{"zip":"511","zh":"社頭鄉","en":"Shetou Township"},{"zip":"512","zh":"永靖鄉","en":"Yongjing Township"},{"zip":"513","zh":"埔心鄉","en":"Puxin Township"},{"zip":"514","zh":"溪湖鎮","en":"Xihu Township"},{"zip":"515","zh":"大村鄉","en":"Dacun Township"},{"zip":"516","zh":"埔鹽鄉","en":"Puyan Township"},{"zip":"520","zh":"田中鎮","en":"Tianzhong Township"},{"zip":"521","zh":"北斗鎮","en":"Beidou Township"},{"zip":"522","zh":"田尾鄉","en":"Tianwei Township"},{"zip":"523","zh":"埤頭鄉","en":"Pitou Township"},{"zip":"524","zh":"溪州鄉","en":"Xizhou Township"},{"zip":"525","zh":"竹塘鄉","en":"Zhutang Township"},{"zip":"526","zh":"二林鎮","en":"Erlin Township"},{"zip":"527","zh":"大城鄉","en":"Dacheng Township"},{"zip":"528","zh":"芳苑鄉","en":"Fangyuan Township"},{"zip":"530","zh":"二水鄉","en":"Ershui Township"}]},{"zh":"南投縣","en":"Nantou County","districts":[{"zip":"540","zh":"南投市","en":"Nantou City"},{"zip":"541","zh":"中寮鄉","en":"Zhongliao Township"},{"zip":"542","zh":"草屯鎮","en":"Caotun Township"},{"zip":"544","zh":"國姓鄉","en":"Guoxing Township"},{"zip":"545","zh":"埔里鎮","en":"Puli Township"},{"zip":"546","zh":"仁愛鄉","en":"Ren’ai Township"},{"zip":"551","zh":"名間鄉","en":"Mingjian Township"},{"zip":"552","zh":"集集鎮","en":"Jiji Township"},{"zip":"553","zh":"水里鄉","en":"Shuili Township"},{"zip":"555","zh":"魚池鄉","en":"Yuchi Township"},{"zip":"556","zh":"信義鄉","en":"Xinyi Township"},{"zip":"557","zh":"竹山鎮","en":"Zhushan Township"},{"zip":"558","zh":"鹿谷鄉","en":"Lugu Township"}]},{"zh":"嘉義市","en":"Chiayi City","districts":[{"zip":"600","zh":"西區","en":"West Dist."},{"zip":"600","zh":"東區","en":"East Dist."}]},{"zh":"嘉義縣","en":"Chiayi County","districts":[{"zip":"602","zh":"番路鄉","en":"Fanlu Township"},{"zip":"603","zh":"梅山鄉","en":"Meishan Township"},{"zip":"604","zh":"竹崎鄉","en":"Zhuqi Township"},{"zip":"605","zh":"阿里山鄉","en":"Alishan Township"},{"zip":"606","zh":"中埔鄉","en":"Zhongpu Township"},{"zip":"607","zh":"大埔鄉","en":"Dapu Township"},{"zip":"608","zh":"水上鄉","en":"Shuishang Township"},{"zip":"611","zh":"鹿草鄉","en":"Lucao Township"},{"zip":"612","zh":"太保市","en":"Taibao City"},{"zip":"613","zh":"朴子市","en":"Puzi City"},{"zip":"614","zh":"東石鄉","en":"Dongshi Township"},{"zip":"615","zh":"六腳鄉","en":"Liujiao Township"},{"zip":"616","zh":"新港鄉","en":"Xingang Township"},{"zip":"621","zh":"民雄鄉","en":"Minxiong Township"},{"zip":"622","zh":"大林鎮","en":"Dalin Township"},{"zip":"623","zh":"溪口鄉","en":"Xikou Township"},{"zip":"624","zh":"義竹鄉","en":"Yizhu Township"},{"zip":"625","zh":"布袋鎮","en":"Budai Township"}]},{"zh":"雲林縣","en":"Yunlin County","districts":[{"zip":"630","zh":"斗南鎮","en":"Dounan Township"},{"zip":"631","zh":"大埤鄉","en":"Dapi Township"},{"zip":"632","zh":"虎尾鎮","en":"Huwei Township"},{"zip":"633","zh":"土庫鎮","en":"Tuku Township"},{"zip":"634","zh":"褒忠鄉","en":"Baozhong Township"},{"zip":"635","zh":"東勢鄉","en":"Dongshi Township"},{"zip":"636","zh":"臺西鄉","en":"Taixi Township"},{"zip":"637","zh":"崙背鄉","en":"Lunbei Township"},{"zip":"638","zh":"麥寮鄉","en":"Mailiao Township"},{"zip":"640","zh":"斗六市","en":"Douliu City"},{"zip":"643","zh":"林內鄉","en":"Linnei Township"},{"zip":"646","zh":"古坑鄉","en":"Gukeng Township"},{"zip":"647","zh":"莿桐鄉","en":"Citong Township"},{"zip":"648","zh":"西螺鎮","en":"Xiluo Township"},{"zip":"649","zh":"二崙鄉","en":"Erlun Township"},{"zip":"651","zh":"北港鎮","en":"Beigang Township"},{"zip":"652","zh":"水林鄉","en":"Shuilin Township"},{"zip":"653","zh":"口湖鄉","en":"Kouhu Township"},{"zip":"654","zh":"四湖鄉","en":"Sihu Township"},{"zip":"655","zh":"元長鄉","en":"Yuanchang Township"}]},{"zh":"臺南市","en":"Tainan City","districts":[{"zip":"700","zh":"中西區","en":"West Central Dist."},{"zip":"701","zh":"東區","en":"East Dist."},{"zip":"702","zh":"南區","en":"South Dist."},{"zip":"704","zh":"北區","en":"North Dist."},{"zip":"708","zh":"安平區","en":"Anping Dist."},{"zip":"709","zh":"安南區","en":"Annan Dist."},{"zip":"710","zh":"永康區","en":"Yongkang Dist."},{"zip":"711","zh":"歸仁區","en":"Guiren Dist."},{"zip":"712","zh":"新化區","en":"Xinhua Dist."},{"zip":"713","zh":"左鎮區","en":"Zuozhen Dist."},{"zip":"714","zh":"玉井區","en":"Yujing Dist."},{"zip":"715","zh":"楠西區","en":"Nanxi Dist."},{"zip":"716","zh":"南化區","en":"Nanhua Dist."},{"zip":"717","zh":"仁德區","en":"Rende Dist."},{"zip":"718","zh":"關廟區","en":"Guanmiao Dist."},{"zip":"719","zh":"龍崎區","en":"Longqi Dist."},{"zip":"720","zh":"官田區","en":"Guantian Dist."},{"zip":"721","zh":"麻豆區","en":"Madou Dist."},{"zip":"722","zh":"佳里區","en":"Jiali Dist."},{"zip":"723","zh":"西港區","en":"Xigang Dist."},{"zip":"724","zh":"七股區","en":"Qigu Dist."},{"zip":"725","zh":"將軍區","en":"Jiangjun Dist."},{"zip":"726","zh":"學甲區","en":"Xuejia Dist."},{"zip":"727","zh":"北門區","en":"Beimen Dist."},{"zip":"730","zh":"新營區","en":"Xinying Dist."},{"zip":"731","zh":"後壁區","en":"Houbi Dist."},{"zip":"732","zh":"白河區","en":"Baihe Dist."},{"zip":"733","zh":"東山區","en":"Dongshan Dist."},{"zip":"734","zh":"六甲區","en":"Liujia Dist."},{"zip":"735","zh":"下營區","en":"Xiaying Dist."},{"zip":"736","zh":"柳營區","en":"Liuying Dist."},{"zip":"737","zh":"鹽水區","en":"Yanshui Dist."},{"zip":"741","zh":"善化區","en":"Shanhua Dist."},{"zip":"744","zh":"新市區","en":"Xinshi Dist."},{"zip":"742","zh":"大內區","en":"Danei Dist."},{"zip":"743","zh":"山上區","en":"Shanshang Dist."},{"zip":"745","zh":"安定區","en":"Anding Dist."}]},{"zh":"高雄市","en":"Kaohsiung City","districts":[{"zip":"800","zh":"新興區","en":"Xinxing Dist."},{"zip":"801","zh":"前金區","en":"Qianjin Dist."},{"zip":"802","zh":"苓雅區","en":"Lingya Dist."},{"zip":"803","zh":"鹽埕區","en":"Yancheng Dist."},{"zip":"804","zh":"鼓山區","en":"Gushan Dist."},{"zip":"805","zh":"旗津區","en":"Qijin Dist."},{"zip":"806","zh":"前鎮區","en":"Qianzhen Dist."},{"zip":"807","zh":"三民區","en":"Sanmin Dist."},{"zip":"811","zh":"楠梓區","en":"Nanzi Dist."},{"zip":"812","zh":"小港區","en":"Xiaogang Dist."},{"zip":"813","zh":"左營區","en":"Zuoying Dist."},{"zip":"814","zh":"仁武區","en":"Renwu Dist."},{"zip":"815","zh":"大社區","en":"Dashe Dist."},{"zip":"817","zh":"東沙群島","en":"Dongsha Islands"},{"zip":"819","zh":"南沙群島","en":"Nansha Islands"},{"zip":"820","zh":"岡山區","en":"Gangshan Dist."},{"zip":"821","zh":"路竹區","en":"Luzhu Dist."},{"zip":"822","zh":"阿蓮區","en":"Alian Dist."},{"zip":"823","zh":"田寮區","en":"Tianliao Dist."},{"zip":"824","zh":"燕巢區","en":"Yanchao Dist."},{"zip":"825","zh":"橋頭區","en":"Qiaotou Dist."},{"zip":"826","zh":"梓官區","en":"Ziguan Dist."},{"zip":"827","zh":"彌陀區","en":"Mituo Dist."},{"zip":"828","zh":"永安區","en":"Yong’an Dist."},{"zip":"829","zh":"湖內區","en":"Hunei Dist."},{"zip":"830","zh":"鳳山區","en":"Fengshan Dist."},{"zip":"831","zh":"大寮區","en":"Daliao Dist."},{"zip":"832","zh":"林園區","en":"Linyuan Dist."},{"zip":"833","zh":"鳥松區","en":"Niaosong Dist."},{"zip":"840","zh":"大樹區","en":"Dashu Dist."},{"zip":"842","zh":"旗山區","en":"Qishan Dist."},{"zip":"843","zh":"美濃區","en":"Meinong Dist."},{"zip":"844","zh":"六龜區","en":"Liugui Dist."},{"zip":"845","zh":"內門區","en":"Neimen Dist."},{"zip":"846","zh":"杉林區","en":"Shanlin Dist."},{"zip":"847","zh":"甲仙區","en":"Jiaxian Dist."},{"zip":"848","zh":"桃源區","en":"Taoyuan Dist."},{"zip":"849","zh":"那瑪夏區","en":"Namaxia Dist."},{"zip":"851","zh":"茂林區","en":"Maolin Dist."},{"zip":"852","zh":"茄萣區","en":"Qieding Dist."}]},{"zh":"南海島","en":"Nanhai","districts":[{"zip":"817","zh":"東沙群島","en":"Dongsha Islands"},{"zip":"819","zh":"南沙群島","en":"Nansha Islands"}]},{"zh":"澎湖縣","en":"Penghu County","districts":[{"zip":"880","zh":"馬公市","en":"Magong City"},{"zip":"881","zh":"西嶼鄉","en":"Xiyu Township"},{"zip":"882","zh":"望安鄉","en":"Wang’an Township"},{"zip":"883","zh":"七美鄉","en":"Qimei Township"},{"zip":"884","zh":"白沙鄉","en":"Baisha Township"},{"zip":"885","zh":"湖西鄉","en":"Huxi Township"}]},{"zh":"金門縣","en":"Kinmen County","districts":[{"zip":"890","zh":"金沙鎮","en":"Jinsha Township"},{"zip":"891","zh":"金湖鎮","en":"Jinhu Township"},{"zip":"892","zh":"金寧鄉","en":"Jinning Township"},{"zip":"893","zh":"金城鎮","en":"Jincheng Township"},{"zip":"894","zh":"烈嶼鄉","en":"Lieyu Township"},{"zip":"896","zh":"烏坵鄉","en":"Wuqiu Township"}]},{"zh":"屏東縣","en":"Pingtung County","districts":[{"zip":"900","zh":"屏東市","en":"Pingtung City"},{"zip":"901","zh":"三地門鄉","en":"Sandimen Township"},{"zip":"902","zh":"霧臺鄉","en":"Wutai Township"},{"zip":"903","zh":"瑪家鄉","en":"Majia Township"},{"zip":"904","zh":"九如鄉","en":"Jiuru Township"},{"zip":"905","zh":"里港鄉","en":"Ligang Township"},{"zip":"906","zh":"高樹鄉","en":"Gaoshu Township"},{"zip":"907","zh":"鹽埔鄉","en":"Yanpu Township"},{"zip":"908","zh":"長治鄉","en":"Changzhi Township"},{"zip":"909","zh":"麟洛鄉","en":"Linluo Township"},{"zip":"911","zh":"竹田鄉","en":"Zhutian Township"},{"zip":"912","zh":"內埔鄉","en":"Neipu Township"},{"zip":"913","zh":"萬丹鄉","en":"Wandan Township"},{"zip":"920","zh":"潮州鎮","en":"Chaozhou Township"},{"zip":"921","zh":"泰武鄉","en":"Taiwu Township"},{"zip":"922","zh":"來義鄉","en":"Laiyi Township"},{"zip":"923","zh":"萬巒鄉","en":"Wanluan Township"},{"zip":"924","zh":"崁頂鄉","en":"Kanding Township"},{"zip":"925","zh":"新埤鄉","en":"Xinpi Township"},{"zip":"926","zh":"南州鄉","en":"Nanzhou Township"},{"zip":"927","zh":"林邊鄉","en":"Linbian Township"},{"zip":"928","zh":"東港鎮","en":"Donggang Township"},{"zip":"929","zh":"琉球鄉","en":"Liuqiu Township"},{"zip":"931","zh":"佳冬鄉","en":"Jiadong Township"},{"zip":"932","zh":"新園鄉","en":"Xinyuan Township"},{"zip":"940","zh":"枋寮鄉","en":"Fangliao Township"},{"zip":"941","zh":"枋山鄉","en":"Fangshan Township"},{"zip":"942","zh":"春日鄉","en":"Chunri Township"},{"zip":"943","zh":"獅子鄉","en":"Shizi Township"},{"zip":"944","zh":"車城鄉","en":"Checheng Township"},{"zip":"945","zh":"牡丹鄉","en":"Mudan Township"},{"zip":"946","zh":"恆春鎮","en":"Hengchun Township"},{"zip":"947","zh":"滿州鄉","en":"Manzhou Township"}]},{"zh":"臺東縣","en":"Taitung County","districts":[{"zip":"950","zh":"臺東市","en":"Taitung City"},{"zip":"951","zh":"綠島鄉","en":"Ludao Township"},{"zip":"952","zh":"蘭嶼鄉","en":"Lanyu Township"},{"zip":"953","zh":"延平鄉","en":"Yanping Township"},{"zip":"954","zh":"卑南鄉","en":"Beinan Township"},{"zip":"955","zh":"鹿野鄉","en":"Luye Township"},{"zip":"956","zh":"關山鎮","en":"Guanshan Township"},{"zip":"957","zh":"海端鄉","en":"Haiduan Township"},{"zip":"958","zh":"池上鄉","en":"Chishang Township"},{"zip":"959","zh":"東河鄉","en":"Donghe Township"},{"zip":"961","zh":"成功鎮","en":"Chenggong Township"},{"zip":"962","zh":"長濱鄉","en":"Changbin Township"},{"zip":"963","zh":"太麻里鄉","en":"Taimali Township"},{"zip":"964","zh":"金峰鄉","en":"Jinfeng Township"},{"zip":"965","zh":"大武鄉","en":"Dawu Township"},{"zip":"966","zh":"達仁鄉","en":"Daren Township"}]},{"zh":"花蓮縣","en":"Hualien County","districts":[{"zip":"970","zh":"花蓮市","en":"Hualien City"},{"zip":"971","zh":"新城鄉","en":"Xincheng Township"},{"zip":"972","zh":"秀林鄉","en":"Xiulin Township"},{"zip":"973","zh":"吉安鄉","en":"Ji’an Township"},{"zip":"974","zh":"壽豐鄉","en":"Shoufeng Township"},{"zip":"975","zh":"鳳林鎮","en":"Fenglin Township"},{"zip":"976","zh":"光復鄉","en":"Guangfu Township"},{"zip":"977","zh":"豐濱鄉","en":"Fengbin Township"},{"zip":"978","zh":"瑞穗鄉","en":"Ruisui Township"},{"zip":"979","zh":"萬榮鄉","en":"Wanrong Township"},{"zip":"981","zh":"玉里鎮","en":"Yuli Township"},{"zip":"982","zh":"卓溪鄉","en":"Zhuoxi Township"},{"zip":"983","zh":"富里鄉","en":"Fuli Township"}]}]